AO-123
1 61781U 24199AY  26182.17359978  .00009680  00000-0  27890-3 0  9998
2 61781  97.2979  50.7187 0011930 256.2504 103.7412 15.35873887136074
JINJUSat 1B
1 63210U 25052A   26181.97762950  .00019928  00000-0  60840-3 0  9999
2 63210  97.3993  78.7540 0004803  61.9599 298.2129 15.33933362 72212
NUSHSAT 1
1 63211U 25052B   26181.99871829  .00025816  00000-0  72501-3 0  9998
2 63211  97.3967  79.3894 0004560  67.4140 292.7586 15.36513612 72262
TEVEL2-4
1 63213U 25052D   26180.96071089  .00019361  00000-0  57064-3 0  9991
2 63213  97.3893  77.3762 0004732  79.7406 280.4371 15.35054118 72071
TEVEL2-5
1 63214U 25052E   26181.24344693  .00016701  00000-0  49542-3 0  9995
2 63214  97.3890  77.6036 0004702  80.7172 279.4603 15.34882414 72113
TEVEL2-6
1 63215U 25052F   26181.97321612  .00022002  00000-0  65161-3 0  9998
2 63215  97.3895  78.3191 0004484  80.3249 279.8501 15.34878208 72226
TEVEL2-1
1 63217U 25052H   26180.96361751  .00018395  00000-0  55563-3 0  9991
2 63217  97.3866  76.9168 0004975  89.0963 271.0850 15.34288206 72053
TEVEL2-3
1 63218U 25052J   26180.95778371  .00018482  00000-0  55722-3 0  9995
2 63218  97.3871  76.9346 0004829  90.2105 269.9691 15.34347673 72051
TEVEL2-2
1 63219U 25052K   26179.65946029  .00016937  00000-0  51245-3 0  9997
2 63219  97.3871  75.6148 0005015  92.1173 268.0645 15.34253315 71857
TEVEL2-9
1 63237U 25052AD  26181.21912539  .00014659  00000-0  47181-3 0  9994
2 63237  97.3929  76.5220 0008309  96.6090 263.6098 15.32290550 72021
TEVEL2-7
1 63238U 25052AE  26181.65447772  .00016416  00000-0  53277-3 0  9991
2 63238  97.3931  76.8668 0008383  95.4653 264.7545 15.31999023 72083
TEVEL2-8
1 63239U 25052AF  26181.98944468  .00019882  00000-0  64443-3 0  9999
2 63239  97.3930  77.1776 0008439  95.2940 264.9265 15.31998432 72136
SPIRONE
1 66657U 25274H   26181.38598585  .00001805  00000-0  17630-3 0  9993
2 66657  97.7480 110.4890 0011447 337.8599  22.2125 14.93598525 32191
K-HERO
1 66660U 25274L   26181.72178357  .00001714  00000-0  16585-3 0  9993
2 66660  97.7486 110.9907 0013359 340.3720  19.6985 14.94013166 32259
SNUGLITE-III DURI
1 66661U 25274M   26182.04409112  .00001701  00000-0  16448-3 0  9990
2 66661  97.7482 111.3295 0014011 339.9816  20.0852 14.94050951 32305
SAKHACUBE-CHOLBON
1 67290U 25313AU  26182.07081014  .00011263  00000-0  45180-3 0  9992
2 67290  97.3936 256.9337 0007759 311.3566  48.7004 15.25132506 28093
RS95S (QMR-KWT-2)
1 67291U 25313AV  26182.11139779  .00017815  00000-0  68082-3 0  9995
2 67291  97.3928 257.1787 0007318 307.4098  52.6474 15.26647687 28114
Ten-Koh2
1 68261U 25241B   26181.39325361  .00004376  00000-0  19162-3 0  9999
2 68261  51.6668 256.7762 0005152 181.4048 178.6917 15.24036074 16920
JACK-002
1 68417U 26067B   26182.12256882  .00007974  00000-0  37801-3 0  9999
2 68417  97.4573 140.5423 0001559 159.1133 201.0166 15.19563796 14064
DISCO 2
1 68431U 26067R   26182.14649402  .00009498  00000-0  45319-3 0  9997
2 68431  97.4610 140.5549 0001190  20.5488 339.5794 15.19282896 14069
HADES-SA (SpinnyONE)
1 68446U 26067AG  26180.60419090  .00016915  00000-0  79855-3 0  9994
2 68446  97.4405 138.7174 0008444  50.7597 309.4385 15.19479734 13818
PARUS-6U1
1 68456U 26067AS  26181.83723985  .00006760  00000-0  33884-3 0  9991
2 68456  97.4560 139.9920 0006415  35.1767 324.9889 15.17659408 14004
SAL-E
1 68458U 26067AU  26182.15990619  .00010595  00000-0  52431-3 0  9999
2 68458  97.4487 140.2377 0006940  42.1451 318.0316 15.17960282 14055
FSI-SAT 2
1 68792U 26088A   26182.16415457  .00005907  00000-0  39805-3 0  9997
2 68792  97.5082 331.0733 0015426  62.8942 297.3858 15.06946308 10391
OrigamiSat 2
1 68795U 26088D   26182.15486193  .00016874  00000-0  10653-2 0  9998
2 68795  97.5090 331.2433 0015292  35.6085 324.6161 15.09050615 10402
ARICA 2
1 68796U 26088E   26181.95887424  .00005168  00000-0  33403-3 0  9991
2 68796  97.5078 331.0314 0016274  36.0179 324.2142 15.08536118 10372
WASEDA-SAT-ZERO-II
1 68797U 26088F   26182.01876279  .00006983  00000-0  44672-3 0  9992
2 68797  97.5078 331.1034 0016064  35.6651 324.5648 15.08796495 10381
MANGARO-II-Piscus
1 68798U 26088G   26182.14077784  .00004477  00000-0  28678-3 0  9995
2 68798  97.5089 331.2558 0019850  37.8110 322.4509 15.08885427 10406
IO-86
1 40931U          25360.30710720  .00000000  00000-0  12800-3 0    00
2 40931   6.0006 332.5373 0012733 338.8432   8.1437 14.79075515    01
LILIUM-4
1 71922C 26067AC  26089.50133053 -.00014632  00000 0 -74472-3 0    04
2 71922  97.4497  49.1617 0004341   5.9603 355.7042 15.16896692    16
